0 ARIANE 44L R/B
1 26901U 01039B   13282.39684703  .00011524  00000-0  36703-2 0  8608
2 26901 007.2367 090.8493 7010404 084.5559 079.5770 02.61969782107036
0 ARIANE 44L R/B
1 26901U 01039B   13282.93901845  .00009182  00000-0  29542-2 0  8618
2 26901 007.2389 090.5347 7010193 085.1353 230.8640 02.61989346107057
0 ARIANE 44L R/B
1 26901U 01039B   13283.44580951  .00009021  00000-0  29168-2 0  8623
2 26901 007.2394 090.2791 7010129 085.6344 348.8361 02.61999360107065
0 ARIANE 44L R/B
1 26901U 01039B   13283.78534449  .00009046  00000-0  29399-2 0  8635
2 26901 007.2398 090.1107 7010036 085.9632 309.0766 02.62005486107076
0 ARIANE 44L R/B
1 26901U 01039B   13285.75483427  .00008888  00000-0  29309-2 0  8659
2 26901 007.2415 089.1219 7009756 087.8980 006.7821 02.62046935107125
0 ARIANE 44L R/B
1 26901U 01039B   13286.50269943  .00008633  00000-0  28629-2 0  8661
2 26901 007.2421 088.7461 7009581 088.6316 352.2745 02.62064036107142
0 ARIANE 44L R/B
1 26901U 01039B   13286.90512481  .00008758  00000-0  29026-2 0  8674
2 26901 007.2425 088.5442 7009513 089.0296 011.9062 02.62073604107153
0 ARIANE 44L R/B
1 26901U 01039B   13288.40462193  .00009461  00000-0  31208-2 0  8683
2 26901 007.2437 087.7899 7009133 090.5007 346.6246 02.62113665107196
0 ARIANE 44L R/B
1 26901U 01039B   13289.13383762  .00009017  00000-0  29819-2 0  8691
2 26901 007.2443 087.4244 7008838 091.2125 314.6911 02.62134956107217
0 ARIANE 44L R/B
1 26901U 01039B   13289.55680618  .00009061  00000-0  29851-2 0  8704
2 26901 007.2446 087.2117 7008816 091.6266 353.8195 02.62139510107224
0 ARIANE 44L R/B
1 26901U 01039B   13290.30780388  .00010575  00000-0  30807-2 0  8721
2 26901 007.2429 086.8752 7010936 092.3112 342.5656 02.62142561107248
0 ARIANE 44L R/B
1 26901U 01039B   13290.50102576  .00009099  00000-0  30039-2 0  8715
2 26901 007.2453 086.7372 7008392 092.5494 164.8603 02.62163589107240
0 ARIANE 44L R/B
1 26901U 01039B   13291.46297215  .00008887  00000-0  29202-2 0  8721
2 26901 007.2463 086.2537 7008191 093.4946 352.7188 02.62182806107270
0 ARIANE 44L R/B
1 26901U 01039B   13293.01920846  .00009313  00000-0  30589-2 0  8733
2 26901 007.2478 085.4741 7007756 095.0183 021.6075 02.62213401107319
0 ARIANE 44L R/B
1 26901U 01039B   13294.51318265  .00008658  00000-0  28637-2 0  8748
2 26901 007.2495 084.7248 7007327 096.4795 351.8996 02.62245863107351
0 ARIANE 44L R/B
1 26901U 01039B   13295.53791199  .00009115  00000-0  30366-2 0  8754
2 26901 007.2502 084.2153 7007042 097.4755 239.3254 02.62268279107387
